{
"type": "FeatureCollection",
"name": "boundarypoint",
"features": [
{ "type": "Feature", "properties": { "LAK_KHET_NO": "หลักเขตที่ 1", "TAM_NAM_T": "ต.ละลม", "GAZETTE_REF": "ราชกิจจานุเบกษา เล่ม 114 ตอนพิเศษ 96 ง หน้า 302 ลงวันที่ 15 ตุลาคม 2540", "TEXT_DESCRIP": "", "GRID_CODE": "UB989164", "anchored_to": "tripoint+corner:ต.ตาวัง,ต.ละลม,ต.โสน / 103deg", "lon_from_text": 104.055741, "lat_from_text": 14.622354, "moved_m": 229.7, "flag_review": false, "duplicate_anchor": false, "SOURCE": "จับคู่หลักเขต point.csv -> tripoint/มุมของขอบเขต" }, "geometry": { "type": "Point", "coordinates": [ 104.05776, 14.62302 ] } },
{ "type": "Feature", "properties": { "LAK_KHET_NO": "หลักเขตที่ 2", "TAM_NAM_T": "ต.ละลม", "GAZETTE_REF": "ราชกิจจานุเบกษา เล่ม 114 ตอนพิเศษ 96 ง หน้า 302 ลงวันที่ 15 ตุลาคม 2540", "TEXT_DESCRIP": "", "GRID_CODE": "UB994165", "anchored_to": "tripoint+corner:ต.ตาวัง,ต.ละลม,ต.โสน / 103deg", "lon_from_text": 104.060379, "lat_from_text": 14.623277, "moved_m": 283.6, "flag_review": true, "duplicate_anchor": true, "SOURCE": "จับคู่หลักเขต point.csv -> tripoint/มุมของขอบเขต" }, "geometry": { "type": "Point", "coordinates": [ 104.05776, 14.62302 ] } },
{ "type": "Feature", "properties": { "LAK_KHET_NO": "หลักเขตที่ 3", "TAM_NAM_T": "ต.ละลม", "GAZETTE_REF": "ราชกิจจานุเบกษา เล่ม 114 ตอนพิเศษ 96 ง หน้า 302 ลงวันที่ 15 ตุลาคม 2540", "TEXT_DESCRIP": "", "GRID_CODE": "UB997166", "anchored_to": "tripoint+corner:ต.ตาวัง,ต.ละลม,ต.โสน / 103deg", "lon_from_text": 104.063161, "lat_from_text": 14.624192, "moved_m": 596.2, "flag_review": true, "duplicate_anchor": true, "SOURCE": "จับคู่หลักเขต point.csv -> tripoint/มุมของขอบเขต" }, "geometry": { "type": "Point", "coordinates": [ 104.05776, 14.62302 ] } },
{ "type": "Feature", "properties": { "LAK_KHET_NO": "หลักเขตที่ 4", "TAM_NAM_T": "ต.ละลม", "GAZETTE_REF": "ราชกิจจานุเบกษา เล่ม 114 ตอนพิเศษ 96 ง หน้า 302 ลงวันที่ 15 ตุลาคม 2540", "TEXT_DESCRIP": "", "GRID_CODE": "VB000163", "anchored_to": "tripoint+corner:ต.ตาวัง,ต.ละลม,ต.โสน / 103deg", "lon_from_text": 104.065958, "lat_from_text": 14.621491, "moved_m": 899.3, "flag_review": true, "duplicate_anchor": true, "SOURCE": "จับคู่หลักเขต point.csv -> tripoint/มุมของขอบเขต" }, "geometry": { "type": "Point", "coordinates": [ 104.05776, 14.62302 ] } },
{ "type": "Feature", "properties": { "LAK_KHET_NO": "หลักเขตที่ 5", "TAM_NAM_T": "ต.ละลม", "GAZETTE_REF": "ราชกิจจานุเบกษา เล่ม 114 ตอนพิเศษ 96 ง หน้า 302 ลงวันที่ 15 ตุลาคม 2540", "TEXT_DESCRIP": "", "GRID_CODE": "VB019188", "anchored_to": "line:no candidate", "lon_from_text": 104.083504, "lat_from_text": 14.644162, "moved_m": 1988.2, "flag_review": true, "duplicate_anchor": false, "SOURCE": "จับคู่หลักเขต point.csv -> tripoint/มุมของขอบเขต" }, "geometry": { "type": "Point", "coordinates": [ 104.083218559718503, 14.626195087356258 ] } },
{ "type": "Feature", "properties": { "LAK_KHET_NO": "หลักเขตที่ 6", "TAM_NAM_T": "ต.ละลม", "GAZETTE_REF": "ราชกิจจานุเบกษา เล่ม 114 ตอนพิเศษ 96 ง หน้า 302 ลงวันที่ 15 ตุลาคม 2540", "TEXT_DESCRIP": "", "GRID_CODE": "VB026157", "anchored_to": "corner:23deg", "lon_from_text": 104.09012, "lat_from_text": 14.616162, "moved_m": 555.1, "flag_review": true, "duplicate_anchor": false, "SOURCE": "จับคู่หลักเขต point.csv -> tripoint/มุมของขอบเขต" }, "geometry": { "type": "Point", "coordinates": [ 104.095068624608174, 14.614766385517784 ] } },
{ "type": "Feature", "properties": { "LAK_KHET_NO": "หลักเขตที่ 7", "TAM_NAM_T": "ต.ละลม", "GAZETTE_REF": "ราชกิจจานุเบกษา เล่ม 114 ตอนพิเศษ 96 ง หน้า 302 ลงวันที่ 15 ตุลาคม 2540", "TEXT_DESCRIP": "", "GRID_CODE": "VB038156", "anchored_to": "tripoint+corner:ต.ละลม,ต.ห้วยติ๊กชู,ต.โสน / 114deg", "lon_from_text": 104.101264, "lat_from_text": 14.615301, "moved_m": 647.8, "flag_review": true, "duplicate_anchor": false, "SOURCE": "จับคู่หลักเขต point.csv -> tripoint/มุมของขอบเขต" }, "geometry": { "type": "Point", "coordinates": [ 104.10703, 14.61364 ] } },
{ "type": "Feature", "properties": { "LAK_KHET_NO": "หลักเขตที่ 8", "TAM_NAM_T": "ต.ละลม", "GAZETTE_REF": "ราชกิจจานุเบกษา เล่ม 114 ตอนพิเศษ 96 ง หน้า 302 ลงวันที่ 15 ตุลาคม 2540", "TEXT_DESCRIP": "", "GRID_CODE": "VB019076", "anchored_to": "tripoint+corner:ต.ละลม,ต.ห้วยตามอญ,ต.ห้วยติ๊กชู / 71deg", "lon_from_text": 104.083924, "lat_from_text": 14.542909, "moved_m": 312.1, "flag_review": true, "duplicate_anchor": false, "SOURCE": "จับคู่หลักเขต point.csv -> tripoint/มุมของขอบเขต" }, "geometry": { "type": "Point", "coordinates": [ 104.08679, 14.54251 ] } },
{ "type": "Feature", "properties": { "LAK_KHET_NO": "หลักเขตที่ 9", "TAM_NAM_T": "ต.ละลม", "GAZETTE_REF": "ราชกิจจานุเบกษา เล่ม 114 ตอนพิเศษ 96 ง หน้า 302 ลงวันที่ 15 ตุลาคม 2540", "TEXT_DESCRIP": "", "GRID_CODE": "UB982109", "anchored_to": "tripoint+corner:ต.ละลม,ต.สะเดา,ต.ห้วยตามอญ / 95deg", "lon_from_text": 104.049456, "lat_from_text": 14.572605, "moved_m": 218.1, "flag_review": false, "duplicate_anchor": false, "SOURCE": "จับคู่หลักเขต point.csv -> tripoint/มุมของขอบเขต" }, "geometry": { "type": "Point", "coordinates": [ 104.05135, 14.57191 ] } },
{ "type": "Feature", "properties": { "LAK_KHET_NO": "หลักเขตที่ 10", "TAM_NAM_T": "ต.ละลม", "GAZETTE_REF": "ราชกิจจานุเบกษา เล่ม 114 ตอนพิเศษ 96 ง หน้า 302 ลงวันที่ 15 ตุลาคม 2540", "TEXT_DESCRIP": "", "GRID_CODE": "UB989165", "anchored_to": "tripoint+corner:ต.ตาวัง,ต.ละลม,ต.โสน / 103deg", "lon_from_text": 104.055737, "lat_from_text": 14.623258, "moved_m": 219.5, "flag_review": true, "duplicate_anchor": true, "SOURCE": "จับคู่หลักเขต point.csv -> tripoint/มุมของขอบเขต" }, "geometry": { "type": "Point", "coordinates": [ 104.05776, 14.62302 ] } }
]
}
